STARLINK-35475          
1 65865U 25223M   25299.95301521  .00056167  00000+0  10089-2 0  9991
2 65865  53.1593 197.9404 0001267  80.3140 279.8012 15.49358088  3692
STARLINK-35312          
1 65866U 25223N   25299.95268087  .00050423  00000+0  90897-3 0  9996
2 65866  53.1586 197.9382 0001709 115.5457 244.5729 15.49303500  3696
STARLINK-35456          
1 65867U 25223P   25299.95232966  .00101339  00000+0  18044-2 0  9990
2 65867  53.1586 197.9356 0001024  96.4321 263.6805 15.49344019  3692
STARLINK-35450          
1 65868U 25223Q   25299.91670139 -.01963889  00000+0 -52555-1 0  9998
2 65868  53.1589 198.1576 0001285  50.5948  85.1138 15.40988440  4968
STARLINK-35441          
1 65869U 25223R   25299.91670139  .00018099  00000+0  46193-3 0  9993
2 65869  53.1590 198.2060 0001180 100.5491  10.0257 15.39583463  4966
STARLINK-35433          
1 65870U 25223S   25299.88710177 -.00397585  00000+0 -79157-2 0  9995
2 65870  53.1585 198.2384 0000881 100.3056 259.8051 15.47814469  3699
STARLINK-35465          
1 65871U 25223T   25299.91670139 -.02067961  00000+0 -50993-1 0  9993
2 65871  53.1589 198.1156 0001252  95.7894  60.1120 15.43596196  4961
STARLINK-34108          
1 65872U 25223U   25299.95026852  .00084376  00000+0  15071-2 0  9999
2 65872  53.1593 197.9214 0001076 101.8949 258.2181 15.49341322  3694
STARLINK-35423          
1 65873U 25223V   25299.94992630  .00092582  00000+0  16515-2 0  9997
2 65873  53.1592 197.9184 0001070  83.1696 276.9435 15.49336013  3695
STARLINK-35425          
1 65874U 25223W   25299.95061234  .00050617  00000+0  91177-3 0  9997
2 65874  53.1594 197.9238 0001103  99.5373 260.5761 15.49324163  3692
STARLINK-34688          
1 65875U 25223X   25299.94958047  .00058708  00000+0  10539-2 0  9995
2 65875  53.1587 197.9161 0001122 100.8896 259.2240 15.49357506  3691
STARLINK-34438          
1 65876U 25223Y   25299.88473082  .00089156  00000+0  15911-2 0  9990
2 65876  53.1588 198.2232 0001124  97.6359 262.4778 15.49339935  3682
