CCSDS_OMM_VERS = 2.0
CREATION_DATE  = 
ORIGINATOR     = 

OBJECT_NAME    = STARLINK-35475
OBJECT_ID      = 2025-223M
CENTER_NAME    = EARTH
REF_FRAME      = TEME
TIME_SYSTEM    = UTC
MEAN_ELEMENT_THEORY = SGP/SGP4

EPOCH          = 2025-10-26T22:52:20.514144
MEAN_MOTION    = 15.49358088
ECCENTRICITY   = .00012671
INCLINATION    = 53.1593
RA_OF_ASC_NODE = 197.9404
ARG_OF_PERICENTER = 80.3140
MEAN_ANOMALY   = 279.8012

EPHEMERIS_TYPE = 0
CLASSIFICATION_TYPE = U
NORAD_CAT_ID   = 65865
ELEMENT_SET_NO = 999
REV_AT_EPOCH   = 369
BSTAR          = .10089473E-2
MEAN_MOTION_DOT = .56167E-3
MEAN_MOTION_DDOT = 0

CCSDS_OMM_VERS = 2.0
CREATION_DATE  = 
ORIGINATOR     = 

OBJECT_NAME    = STARLINK-35312
OBJECT_ID      = 2025-223N
CENTER_NAME    = EARTH
REF_FRAME      = TEME
TIME_SYSTEM    = UTC
MEAN_ELEMENT_THEORY = SGP/SGP4

EPOCH          = 2025-10-26T22:51:51.627168
MEAN_MOTION    = 15.49303500
ECCENTRICITY   = .00017097
INCLINATION    = 53.1586
RA_OF_ASC_NODE = 197.9382
ARG_OF_PERICENTER = 115.5457
MEAN_ANOMALY   = 244.5729

EPHEMERIS_TYPE = 0
CLASSIFICATION_TYPE = U
NORAD_CAT_ID   = 65866
ELEMENT_SET_NO = 999
REV_AT_EPOCH   = 369
BSTAR          = .90897438E-3
MEAN_MOTION_DOT = .50423E-3
MEAN_MOTION_DDOT = 0

CCSDS_OMM_VERS = 2.0
CREATION_DATE  = 
ORIGINATOR     = 

OBJECT_NAME    = STARLINK-35456
OBJECT_ID      = 2025-223P
CENTER_NAME    = EARTH
REF_FRAME      = TEME
TIME_SYSTEM    = UTC
MEAN_ELEMENT_THEORY = SGP/SGP4

EPOCH          = 2025-10-26T22:51:21.282624
MEAN_MOTION    = 15.49344019
ECCENTRICITY   = .00010241
INCLINATION    = 53.1586
RA_OF_ASC_NODE = 197.9356
ARG_OF_PERICENTER = 96.4321
MEAN_ANOMALY   = 263.6805

EPHEMERIS_TYPE = 0
CLASSIFICATION_TYPE = U
NORAD_CAT_ID   = 65867
ELEMENT_SET_NO = 999
REV_AT_EPOCH   = 369
BSTAR          = .18043688E-2
MEAN_MOTION_DOT = .101339E-2
MEAN_MOTION_DDOT = 0

CCSDS_OMM_VERS = 2.0
CREATION_DATE  = 
ORIGINATOR     = 

OBJECT_NAME    = STARLINK-35450
OBJECT_ID      = 2025-223Q
CENTER_NAME    = EARTH
REF_FRAME      = TEME
TIME_SYSTEM    = UTC
MEAN_ELEMENT_THEORY = SGP/SGP4

EPOCH          = 2025-10-26T22:00:03.000096
MEAN_MOTION    = 15.40988440
ECCENTRICITY   = .00012856
INCLINATION    = 53.1589
RA_OF_ASC_NODE = 198.1576
ARG_OF_PERICENTER = 50.5948
MEAN_ANOMALY   = 85.1138

EPHEMERIS_TYPE = 0
CLASSIFICATION_TYPE = U
NORAD_CAT_ID   = 65868
ELEMENT_SET_NO = 999
REV_AT_EPOCH   = 496
BSTAR          = -.52555214E-1
MEAN_MOTION_DOT = -.1963889E-1
MEAN_MOTION_DDOT = 0

CCSDS_OMM_VERS = 2.0
CREATION_DATE  = 
ORIGINATOR     = 

OBJECT_NAME    = STARLINK-35441
OBJECT_ID      = 2025-223R
CENTER_NAME    = EARTH
REF_FRAME      = TEME
TIME_SYSTEM    = UTC
MEAN_ELEMENT_THEORY = SGP/SGP4

EPOCH          = 2025-10-26T22:00:03.000096
MEAN_MOTION    = 15.39583463
ECCENTRICITY   = .00011806
INCLINATION    = 53.1590
RA_OF_ASC_NODE = 198.2060
ARG_OF_PERICENTER = 100.5491
MEAN_ANOMALY   = 10.0257

EPHEMERIS_TYPE = 0
CLASSIFICATION_TYPE = U
NORAD_CAT_ID   = 65869
ELEMENT_SET_NO = 999
REV_AT_EPOCH   = 496
BSTAR          = .46192993E-3
MEAN_MOTION_DOT = .18099E-3
MEAN_MOTION_DDOT = 0

CCSDS_OMM_VERS = 2.0
CREATION_DATE  = 
ORIGINATOR     = 

OBJECT_NAME    = STARLINK-35433
OBJECT_ID      = 2025-223S
CENTER_NAME    = EARTH
REF_FRAME      = TEME
TIME_SYSTEM    = UTC
MEAN_ELEMENT_THEORY = SGP/SGP4

EPOCH          = 2025-10-26T21:17:25.592928
MEAN_MOTION    = 15.47814469
ECCENTRICITY   = .00008812
INCLINATION    = 53.1585
RA_OF_ASC_NODE = 198.2384
ARG_OF_PERICENTER = 100.3056
MEAN_ANOMALY   = 259.8051

EPHEMERIS_TYPE = 0
CLASSIFICATION_TYPE = U
NORAD_CAT_ID   = 65870
ELEMENT_SET_NO = 999
REV_AT_EPOCH   = 369
BSTAR          = -.79157066E-2
MEAN_MOTION_DOT = -.397585E-2
MEAN_MOTION_DDOT = 0

CCSDS_OMM_VERS = 2.0
CREATION_DATE  = 
ORIGINATOR     = 

OBJECT_NAME    = STARLINK-35465
OBJECT_ID      = 2025-223T
CENTER_NAME    = EARTH
REF_FRAME      = TEME
TIME_SYSTEM    = UTC
MEAN_ELEMENT_THEORY = SGP/SGP4

EPOCH          = 2025-10-26T22:00:03.000096
MEAN_MOTION    = 15.43596196
ECCENTRICITY   = .00012524
INCLINATION    = 53.1589
RA_OF_ASC_NODE = 198.1156
ARG_OF_PERICENTER = 95.7894
MEAN_ANOMALY   = 60.1120

EPHEMERIS_TYPE = 0
CLASSIFICATION_TYPE = U
NORAD_CAT_ID   = 65871
ELEMENT_SET_NO = 999
REV_AT_EPOCH   = 496
BSTAR          = -.50992553E-1
MEAN_MOTION_DOT = -.2067961E-1
MEAN_MOTION_DDOT = 0

CCSDS_OMM_VERS = 2.0
CREATION_DATE  = 
ORIGINATOR     = 

OBJECT_NAME    = STARLINK-34108
OBJECT_ID      = 2025-223U
CENTER_NAME    = EARTH
REF_FRAME      = TEME
TIME_SYSTEM    = UTC
MEAN_ELEMENT_THEORY = SGP/SGP4

EPOCH          = 2025-10-26T22:48:23.200128
MEAN_MOTION    = 15.49341322
ECCENTRICITY   = .00010767
INCLINATION    = 53.1593
RA_OF_ASC_NODE = 197.9214
ARG_OF_PERICENTER = 101.8949
MEAN_ANOMALY   = 258.2181

EPHEMERIS_TYPE = 0
CLASSIFICATION_TYPE = U
NORAD_CAT_ID   = 65872
ELEMENT_SET_NO = 999
REV_AT_EPOCH   = 369
BSTAR          = .150709E-2
MEAN_MOTION_DOT = .84376E-3
MEAN_MOTION_DDOT = 0

CCSDS_OMM_VERS = 2.0
CREATION_DATE  = 
ORIGINATOR     = 

OBJECT_NAME    = STARLINK-35423
OBJECT_ID      = 2025-223V
CENTER_NAME    = EARTH
REF_FRAME      = TEME
TIME_SYSTEM    = UTC
MEAN_ELEMENT_THEORY = SGP/SGP4

EPOCH          = 2025-10-26T22:47:53.632320
MEAN_MOTION    = 15.49336013
ECCENTRICITY   = .00010702
INCLINATION    = 53.1592
RA_OF_ASC_NODE = 197.9184
ARG_OF_PERICENTER = 83.1696
MEAN_ANOMALY   = 276.9435

EPHEMERIS_TYPE = 0
CLASSIFICATION_TYPE = U
NORAD_CAT_ID   = 65873
ELEMENT_SET_NO = 999
REV_AT_EPOCH   = 369
BSTAR          = .16514557E-2
MEAN_MOTION_DOT = .92582E-3
MEAN_MOTION_DDOT = 0

CCSDS_OMM_VERS = 2.0
CREATION_DATE  = 
ORIGINATOR     = 

OBJECT_NAME    = STARLINK-35425
OBJECT_ID      = 2025-223W
CENTER_NAME    = EARTH
REF_FRAME      = TEME
TIME_SYSTEM    = UTC
MEAN_ELEMENT_THEORY = SGP/SGP4

EPOCH          = 2025-10-26T22:48:52.906176
MEAN_MOTION    = 15.49324163
ECCENTRICITY   = .00011035
INCLINATION    = 53.1594
RA_OF_ASC_NODE = 197.9238
ARG_OF_PERICENTER = 99.5373
MEAN_ANOMALY   = 260.5761

EPHEMERIS_TYPE = 0
CLASSIFICATION_TYPE = U
NORAD_CAT_ID   = 65874
ELEMENT_SET_NO = 999
REV_AT_EPOCH   = 369
BSTAR          = .91176646E-3
MEAN_MOTION_DOT = .50617E-3
MEAN_MOTION_DDOT = 0

CCSDS_OMM_VERS = 2.0
CREATION_DATE  = 
ORIGINATOR     = 

OBJECT_NAME    = STARLINK-34688
OBJECT_ID      = 2025-223X
CENTER_NAME    = EARTH
REF_FRAME      = TEME
TIME_SYSTEM    = UTC
MEAN_ELEMENT_THEORY = SGP/SGP4

EPOCH          = 2025-10-26T22:47:23.752608
MEAN_MOTION    = 15.49357506
ECCENTRICITY   = .00011229
INCLINATION    = 53.1587
RA_OF_ASC_NODE = 197.9161
ARG_OF_PERICENTER = 100.8896
MEAN_ANOMALY   = 259.2240

EPHEMERIS_TYPE = 0
CLASSIFICATION_TYPE = U
NORAD_CAT_ID   = 65875
ELEMENT_SET_NO = 999
REV_AT_EPOCH   = 369
BSTAR          = .10539147E-2
MEAN_MOTION_DOT = .58708E-3
MEAN_MOTION_DDOT = 0

CCSDS_OMM_VERS = 2.0
CREATION_DATE  = 
ORIGINATOR     = 

OBJECT_NAME    = STARLINK-34438
OBJECT_ID      = 2025-223Y
CENTER_NAME    = EARTH
REF_FRAME      = TEME
TIME_SYSTEM    = UTC
MEAN_ELEMENT_THEORY = SGP/SGP4

EPOCH          = 2025-10-26T21:14:00.742848
MEAN_MOTION    = 15.49339935
ECCENTRICITY   = .00011244
INCLINATION    = 53.1588
RA_OF_ASC_NODE = 198.2232
ARG_OF_PERICENTER = 97.6359
MEAN_ANOMALY   = 262.4778

EPHEMERIS_TYPE = 0
CLASSIFICATION_TYPE = U
NORAD_CAT_ID   = 65876
ELEMENT_SET_NO = 999
REV_AT_EPOCH   = 368
BSTAR          = .15911151E-2
MEAN_MOTION_DOT = .89156E-3
MEAN_MOTION_DDOT = 0

